CCSDS_OMM_VERS = 2.0
CREATION_DATE  = 
ORIGINATOR     = 

OBJECT_NAME    = UNKNOWN
OBJECT_ID      = 
CENTER_NAME    = EARTH
REF_FRAME      = TEME
TIME_SYSTEM    = UTC
MEAN_ELEMENT_THEORY = SGP/SGP4

EPOCH          = 2025-10-26T06:26:59.557632
MEAN_MOTION    = 14.45961593
ECCENTRICITY   = .0052991
INCLINATION    = 99.0861
RA_OF_ASC_NODE = 295.7046
ARG_OF_PERICENTER = 301.4501
MEAN_ANOMALY   = 72.4478

EPHEMERIS_TYPE = 0
CLASSIFICATION_TYPE = U
NORAD_CAT_ID   = 87211
ELEMENT_SET_NO = 999
REV_AT_EPOCH   = 70091
BSTAR          = .13414E-2
MEAN_MOTION_DOT = .4809E-4
MEAN_MOTION_DDOT = 0

CCSDS_OMM_VERS = 2.0
CREATION_DATE  = 
ORIGINATOR     = 

OBJECT_NAME    = UNKNOWN
OBJECT_ID      = 
CENTER_NAME    = EARTH
REF_FRAME      = TEME
TIME_SYSTEM    = UTC
MEAN_ELEMENT_THEORY = SGP/SGP4

EPOCH          = 2025-10-23T22:37:29.678304
MEAN_MOTION    = 13.83918086
ECCENTRICITY   = .0074862
INCLINATION    = 100.3267
RA_OF_ASC_NODE = 290.7312
ARG_OF_PERICENTER = 19.8485
MEAN_ANOMALY   = 340.5553

EPHEMERIS_TYPE = 0
CLASSIFICATION_TYPE = U
NORAD_CAT_ID   = 87214
ELEMENT_SET_NO = 999
REV_AT_EPOCH   = 59335
BSTAR          = .22393E-2
MEAN_MOTION_DOT = .2489E-4
MEAN_MOTION_DDOT = 0

CCSDS_OMM_VERS = 2.0
CREATION_DATE  = 
ORIGINATOR     = 

OBJECT_NAME    = UNKNOWN
OBJECT_ID      = 
CENTER_NAME    = EARTH
REF_FRAME      = TEME
TIME_SYSTEM    = UTC
MEAN_ELEMENT_THEORY = SGP/SGP4

EPOCH          = 2025-10-22T03:03:22.874976
MEAN_MOTION    = 13.91689484
ECCENTRICITY   = .0104033
INCLINATION    = 99.2632
RA_OF_ASC_NODE = 350.7070
ARG_OF_PERICENTER = 64.3273
MEAN_ANOMALY   = 326.4791

EPHEMERIS_TYPE = 0
CLASSIFICATION_TYPE = U
NORAD_CAT_ID   = 87237
ELEMENT_SET_NO = 999
REV_AT_EPOCH   = 60458
BSTAR          = .387E-3
MEAN_MOTION_DOT = .469E-5
MEAN_MOTION_DDOT = 0

CCSDS_OMM_VERS = 2.0
CREATION_DATE  = 
ORIGINATOR     = 

OBJECT_NAME    = UNKNOWN
OBJECT_ID      = 
CENTER_NAME    = EARTH
REF_FRAME      = TEME
TIME_SYSTEM    = UTC
MEAN_ELEMENT_THEORY = SGP/SGP4

EPOCH          = 2025-10-28T05:43:51.993408
MEAN_MOTION    = 14.50563039
ECCENTRICITY   = .0019776
INCLINATION    = 82.8732
RA_OF_ASC_NODE = 121.4676
ARG_OF_PERICENTER = 186.7162
MEAN_ANOMALY   = 173.3774

EPHEMERIS_TYPE = 0
CLASSIFICATION_TYPE = U
NORAD_CAT_ID   = 87239
ELEMENT_SET_NO = 999
REV_AT_EPOCH   = 62127
BSTAR          = .32692E-2
MEAN_MOTION_DOT = .12872E-3
MEAN_MOTION_DDOT = 0

CCSDS_OMM_VERS = 2.0
CREATION_DATE  = 
ORIGINATOR     = 

OBJECT_NAME    = UNKNOWN
OBJECT_ID      = 
CENTER_NAME    = EARTH
REF_FRAME      = TEME
TIME_SYSTEM    = UTC
MEAN_ELEMENT_THEORY = SGP/SGP4

EPOCH          = 2025-10-28T15:12:06.724224
MEAN_MOTION    = 14.14947244
ECCENTRICITY   = .0437337
INCLINATION    = 65.6416
RA_OF_ASC_NODE = 168.3854
ARG_OF_PERICENTER = 143.6963
MEAN_ANOMALY   = 251.9128

EPHEMERIS_TYPE = 0
CLASSIFICATION_TYPE = U
NORAD_CAT_ID   = 87245
ELEMENT_SET_NO = 999
REV_AT_EPOCH   = 60782
BSTAR          = .12753E-2
MEAN_MOTION_DOT = .6194E-4
MEAN_MOTION_DDOT = 0

CCSDS_OMM_VERS = 2.0
CREATION_DATE  = 
ORIGINATOR     = 

OBJECT_NAME    = UNKNOWN
OBJECT_ID      = 
CENTER_NAME    = EARTH
REF_FRAME      = TEME
TIME_SYSTEM    = UTC
MEAN_ELEMENT_THEORY = SGP/SGP4

EPOCH          = 2025-10-28T12:25:11.981856
MEAN_MOTION    = 14.20870046
ECCENTRICITY   = .0421695
INCLINATION    = 65.7578
RA_OF_ASC_NODE = 357.7720
ARG_OF_PERICENTER = 97.6363
MEAN_ANOMALY   = 267.2816

EPHEMERIS_TYPE = 0
CLASSIFICATION_TYPE = U
NORAD_CAT_ID   = 87271
ELEMENT_SET_NO = 999
REV_AT_EPOCH   = 60594
BSTAR          = .97548E-3
MEAN_MOTION_DOT = .514E-4
MEAN_MOTION_DDOT = 0

CCSDS_OMM_VERS = 2.0
CREATION_DATE  = 
ORIGINATOR     = 

OBJECT_NAME    = UNKNOWN
OBJECT_ID      = 
CENTER_NAME    = EARTH
REF_FRAME      = TEME
TIME_SYSTEM    = UTC
MEAN_ELEMENT_THEORY = SGP/SGP4

EPOCH          = 2025-10-27T09:37:14.901024
MEAN_MOTION    = 13.48493227
ECCENTRICITY   = .0131212
INCLINATION    = 64.6174
RA_OF_ASC_NODE = 349.9795
ARG_OF_PERICENTER = 269.2981
MEAN_ANOMALY   = 89.3022

EPHEMERIS_TYPE = 0
CLASSIFICATION_TYPE = U
NORAD_CAT_ID   = 87280
ELEMENT_SET_NO = 999
REV_AT_EPOCH   = 52760
BSTAR          = .11215E-2
MEAN_MOTION_DOT = .652E-5
MEAN_MOTION_DDOT = 0

CCSDS_OMM_VERS = 2.0
CREATION_DATE  = 
ORIGINATOR     = 

OBJECT_NAME    = UNKNOWN
OBJECT_ID      = 
CENTER_NAME    = EARTH
REF_FRAME      = TEME
TIME_SYSTEM    = UTC
MEAN_ELEMENT_THEORY = SGP/SGP4

EPOCH          = 2025-10-28T03:54:17.295552
MEAN_MOTION    = 14.16897649
ECCENTRICITY   = .0425561
INCLINATION    = 65.8973
RA_OF_ASC_NODE = 266.2769
ARG_OF_PERICENTER = 24.4715
MEAN_ANOMALY   = 337.5930

EPHEMERIS_TYPE = 0
CLASSIFICATION_TYPE = U
NORAD_CAT_ID   = 87293
ELEMENT_SET_NO = 999
REV_AT_EPOCH   = 60753
BSTAR          = .3203E-2
MEAN_MOTION_DOT = .15757E-3
MEAN_MOTION_DDOT = 0

CCSDS_OMM_VERS = 2.0
CREATION_DATE  = 
ORIGINATOR     = 

OBJECT_NAME    = UNKNOWN
OBJECT_ID      = 
CENTER_NAME    = EARTH
REF_FRAME      = TEME
TIME_SYSTEM    = UTC
MEAN_ELEMENT_THEORY = SGP/SGP4

EPOCH          = 2025-10-24T21:15:57.553056
MEAN_MOTION    = 13.99188227
ECCENTRICITY   = .0030517
INCLINATION    = 100.0831
RA_OF_ASC_NODE = 275.4625
ARG_OF_PERICENTER = 59.4669
MEAN_ANOMALY   = 300.9497

EPHEMERIS_TYPE = 0
CLASSIFICATION_TYPE = U
NORAD_CAT_ID   = 87300
ELEMENT_SET_NO = 999
REV_AT_EPOCH   = 60628
BSTAR          = .18256E-2
MEAN_MOTION_DOT = .2606E-4
MEAN_MOTION_DDOT = 0

CCSDS_OMM_VERS = 2.0
CREATION_DATE  = 
ORIGINATOR     = 

OBJECT_NAME    = UNKNOWN
OBJECT_ID      = 
CENTER_NAME    = EARTH
REF_FRAME      = TEME
TIME_SYSTEM    = UTC
MEAN_ELEMENT_THEORY = SGP/SGP4

EPOCH          = 2025-10-28T13:12:55.874016
MEAN_MOTION    = 14.75167847
ECCENTRICITY   = .001799
INCLINATION    = 74.0210
RA_OF_ASC_NODE = 49.3966
ARG_OF_PERICENTER = 27.0715
MEAN_ANOMALY   = 333.1393

EPHEMERIS_TYPE = 0
CLASSIFICATION_TYPE = U
NORAD_CAT_ID   = 87304
ELEMENT_SET_NO = 999
REV_AT_EPOCH   = 63981
BSTAR          = .40345E-3
MEAN_MOTION_DOT = .2699E-4
MEAN_MOTION_DDOT = 0

CCSDS_OMM_VERS = 2.0
CREATION_DATE  = 
ORIGINATOR     = 

OBJECT_NAME    = UNKNOWN
OBJECT_ID      = 
CENTER_NAME    = EARTH
REF_FRAME      = TEME
TIME_SYSTEM    = UTC
MEAN_ELEMENT_THEORY = SGP/SGP4

EPOCH          = 2025-10-27T10:50:11.770368
MEAN_MOTION    = 13.69826182
ECCENTRICITY   = .0414419
INCLINATION    = 66.5940
RA_OF_ASC_NODE = 194.6590
ARG_OF_PERICENTER = 84.8428
MEAN_ANOMALY   = 279.9785

EPHEMERIS_TYPE = 0
CLASSIFICATION_TYPE = U
NORAD_CAT_ID   = 87320
ELEMENT_SET_NO = 999
REV_AT_EPOCH   = 58740
BSTAR          = .18486E-2
MEAN_MOTION_DOT = .29E-4
MEAN_MOTION_DDOT = 0

CCSDS_OMM_VERS = 2.0
CREATION_DATE  = 
ORIGINATOR     = 

OBJECT_NAME    = UNKNOWN
OBJECT_ID      = 
CENTER_NAME    = EARTH
REF_FRAME      = TEME
TIME_SYSTEM    = UTC
MEAN_ELEMENT_THEORY = SGP/SGP4

EPOCH          = 2025-10-28T08:21:53.675424
MEAN_MOTION    = 14.03920130
ECCENTRICITY   = .0079662
INCLINATION    = 90.0097
RA_OF_ASC_NODE = 271.7032
ARG_OF_PERICENTER = 26.9347
MEAN_ANOMALY   = 333.5935

EPHEMERIS_TYPE = 0
CLASSIFICATION_TYPE = U
NORAD_CAT_ID   = 87334
ELEMENT_SET_NO = 999
REV_AT_EPOCH   = 38027
BSTAR          = .1622E-1
MEAN_MOTION_DOT = .26413E-3
MEAN_MOTION_DDOT = 0

CCSDS_OMM_VERS = 2.0
CREATION_DATE  = 
ORIGINATOR     = 

OBJECT_NAME    = UNKNOWN
OBJECT_ID      = 
CENTER_NAME    = EARTH
REF_FRAME      = TEME
TIME_SYSTEM    = UTC
MEAN_ELEMENT_THEORY = SGP/SGP4

EPOCH          = 2025-10-27T09:07:48.770976
MEAN_MOTION    = 14.04399270
ECCENTRICITY   = .0094066
INCLINATION    = 89.9950
RA_OF_ASC_NODE = 268.0925
ARG_OF_PERICENTER = 9.3921
MEAN_ANOMALY   = 350.8991

EPHEMERIS_TYPE = 0
CLASSIFICATION_TYPE = U
NORAD_CAT_ID   = 87335
ELEMENT_SET_NO = 999
REV_AT_EPOCH   = 38046
BSTAR          = .1598E-1
MEAN_MOTION_DOT = .26546E-3
MEAN_MOTION_DDOT = 0

CCSDS_OMM_VERS = 2.0
CREATION_DATE  = 
ORIGINATOR     = 

OBJECT_NAME    = UNKNOWN
OBJECT_ID      = 
CENTER_NAME    = EARTH
REF_FRAME      = TEME
TIME_SYSTEM    = UTC
MEAN_ELEMENT_THEORY = SGP/SGP4

EPOCH          = 2025-10-27T10:02:49.194816
MEAN_MOTION    = 13.96036303
ECCENTRICITY   = .0058773
INCLINATION    = 82.7482
RA_OF_ASC_NODE = 96.6504
ARG_OF_PERICENTER = 103.8760
MEAN_ANOMALY   = 256.8955

EPHEMERIS_TYPE = 0
CLASSIFICATION_TYPE = U
NORAD_CAT_ID   = 87405
ELEMENT_SET_NO = 999
REV_AT_EPOCH   = 60469
BSTAR          = .24629E-2
MEAN_MOTION_DOT = .344E-4
MEAN_MOTION_DDOT = 0

CCSDS_OMM_VERS = 2.0
CREATION_DATE  = 
ORIGINATOR     = 

OBJECT_NAME    = UNKNOWN
OBJECT_ID      = 
CENTER_NAME    = EARTH
REF_FRAME      = TEME
TIME_SYSTEM    = UTC
MEAN_ELEMENT_THEORY = SGP/SGP4

EPOCH          = 2025-10-26T05:08:45.398112
MEAN_MOTION    = 14.28930538
ECCENTRICITY   = .0065105
INCLINATION    = 65.7832
RA_OF_ASC_NODE = 103.3241
ARG_OF_PERICENTER = 312.7525
MEAN_ANOMALY   = 227.2804

EPHEMERIS_TYPE = 0
CLASSIFICATION_TYPE = U
NORAD_CAT_ID   = 87426
ELEMENT_SET_NO = 999
REV_AT_EPOCH   = 61579
BSTAR          = .18796E-2
MEAN_MOTION_DOT = .4777E-4
MEAN_MOTION_DDOT = 0

CCSDS_OMM_VERS = 2.0
CREATION_DATE  = 
ORIGINATOR     = 

OBJECT_NAME    = UNKNOWN
OBJECT_ID      = 
CENTER_NAME    = EARTH
REF_FRAME      = TEME
TIME_SYSTEM    = UTC
MEAN_ELEMENT_THEORY = SGP/SGP4

EPOCH          = 2025-10-27T12:47:02.088384
MEAN_MOTION    = 13.90398717
ECCENTRICITY   = .0064778
INCLINATION    = 100.4547
RA_OF_ASC_NODE = 141.3551
ARG_OF_PERICENTER = 323.9187
MEAN_ANOMALY   = 35.7604

EPHEMERIS_TYPE = 0
CLASSIFICATION_TYPE = U
NORAD_CAT_ID   = 87448
ELEMENT_SET_NO = 999
REV_AT_EPOCH   = 60281
BSTAR          = .14535E-2
MEAN_MOTION_DOT = .1781E-4
MEAN_MOTION_DDOT = 0

